[{"OBJECT_NAME":"OBJECT H","OBJECT_ID":"2025-055H","EPOCH":"2026-03-09T23:29:50.051328","MEAN_MOTION":15.30330066,"ECCENTRICITY":0.00075967,"INCLINATION":97.636,"RA_OF_ASC_NODE":211.9572,"ARG_OF_PERICENTER":140.4354,"MEAN_ANOMALY":219.7441,"EPHEMERIS_TYPE":0,"CLASSIFICATION_TYPE":"U","NORAD_CAT_ID":63298,"ELEMENT_SET_NO":999,"REV_AT_EPOCH":5423,"BSTAR":0.0015582864,"MEAN_MOTION_DOT":0.00045901,"MEAN_MOTION_DDOT":0},{"OBJECT_NAME":"STARLINK-35536","OBJECT_ID":"2025-245AD","EPOCH":"2026-03-09T20:31:28.251840","MEAN_MOTION":15.30200965,"ECCENTRICITY":9.383e-5,"INCLINATION":53.1593,"RA_OF_ASC_NODE":282.9944,"ARG_OF_PERICENTER":105.4209,"MEAN_ANOMALY":254.6895,"EPHEMERIS_TYPE":0,"CLASSIFICATION_TYPE":"U","NORAD_CAT_ID":66261,"ELEMENT_SET_NO":999,"REV_AT_EPOCH":2128,"BSTAR":0.0011970875,"MEAN_MOTION_DOT":0.00035264,"MEAN_MOTION_DDOT":0}]
